20621,COSMOS 2081 [GLONASS],1990,675.72,-1.0,-,65.02,Inactive,0,MEO,Kazakhstan,Russia/USSR,Unknown,Unknown,Unknown,1 20621U 90045C   25061.50981559 -.00000045  00000+0  00000+0 0  9993,2 20621  65.0149 324.9487 0042975 217.0730 303.6288  2.13104613270787,2.13104613,0.0042975,MEO
21006,COSMOS 2109 [GLONASS],1990,675.73,-1.0,-,64.65,Inactive,0,MEO,Kazakhstan,Russia/USSR,Unknown,Unknown,Unknown,1 21006U 90110A   25058.25707091  .00000059  00000+0  00000+0 0  9993,2 21006  64.6512  87.4152 0080650 202.4375 224.0620  2.13101535266364,2.13101535,0.008065,MEO
21216,COSMOS 2139 [GLONASS],1991,675.72,-1.0,-,64.66,Inactive,0,MEO,Kazakhstan,Russia/USSR,Unknown,Unknown,Unknown,1 21216U 91025A   25058.54014616 -.00000026  00000+0  00000+0 0  9993,2 21216  64.6641 321.0110 0015475 226.9109 133.0186  2.13106203263810,2.13106203,0.0015475,MEO
21217,COSMOS 2140 [GLONASS],1991,675.74,-1.0,-,64.65,Inactive,0,MEO,Kazakhstan,Russia/USSR,Unknown,Unknown,Unknown,1 21217U 91025B   25061.34239286 -.00000038  00000+0  00000+0 0  9991,2 21217  64.6515 320.8066 0025440 218.6239 342.2540  2.13100804263946,2.13100804,0.002544,MEO
21218,COSMOS 2141 [GLONASS],1991,675.73,-1.0,-,64.65,Inactive,0,MEO,Kazakhstan,Russia/USSR,Unknown,Unknown,Unknown,1 21218U 91025C   25059.35191343 -.00000028  00000+0  00000+0 0  9990,2 21218  64.6454 320.7776 0004255 244.0005 216.2558  2.13103331263870,2.13103331,0.0004255,MEO
21854,COSMOS 2178 [GLONASS],1992,675.72,-1.0,-,64.61,Inactive,0,MEO,Kazakhstan,Russia/USSR,Unknown,Unknown,Unknown,1 21854U 92005B   25058.28255824  .00000059  00000+0  00000+0 0  9994,2 21854  64.6146  86.3352 0030938  27.7249  34.0612  2.13105853257413,2.13105853,0.0030938,MEO
21855,COSMOS 2179 [GLONASS],1992,675.73,-1.0,-,64.61,Inactive,0,MEO,Kazakhstan,Russia/USSR,Unknown,Unknown,Unknown,1 21855U 92005C   25061.35306049  .00000034  00000+0  00000+0 0  9996,2 21855  64.6154  86.2421 0013460 244.2008 192.3757  2.13102525257533,2.13102525,0.001346,MEO
22056,COSMOS 2206 [GLONASS],1992,675.72,-1.0,-,64.45,Inactive,0,MEO,Kazakhstan,Russia/USSR,Unknown,Unknown,Unknown,1 22056U 92047A   25060.29887159 -.00000029  00000+0  00000+0 0  9999,2 22056  64.4478 318.7499 0010242 253.0364 295.5146  2.13107329253609,2.13107329,0.0010242,MEO
22057,COSMOS 2204 [GLONASS],1992,675.73,-1.0,-,64.46,Inactive,0,MEO,Kazakhstan,Russia/USSR,Unknown,Unknown,Unknown,1 22057U 92047B   25060.70394971 -.00000032  00000+0  00000+0 0  9995,2 22057  64.4633 318.9279 0016642 344.3105 198.5751  2.13103000253468,2.13103,0.0016642,MEO
22058,COSMOS 2205 [GLONASS],1992,675.73,-1.0,-,64.46,Inactive,0,MEO,Kazakhstan,Russia/USSR,Unknown,Unknown,Unknown,1 22058U 92047C   25061.10349340 -.00000034  00000+0  00000+0 0  9993,2 22058  64.4570 318.8522 0018480 224.8652 313.4950  2.13102864253646,2.13102864,0.001848,MEO
