[
    {
        "OBJECT_NAME": "COSMOS 2081 [GLONASS]",
        "OBJECT_ID": "1990-045C",
        "EPOCH": "2025-03-02T12:14:08.066976",
        "MEAN_MOTION": 2.13104613,
        "ECCENTRICITY": 0.0042975,
        "INCLINATION": 65.0149,
        "RA_OF_ASC_NODE": 324.9487,
        "ARG_OF_PERICENTER": 217.073,
        "MEAN_ANOMALY": 303.6288,
        "EPHEMERIS_TYPE": 0,
        "CLASSIFICATION_TYPE": "U",
        "NORAD_CAT_ID": 20621,
        "ELEMENT_SET_NO": 999,
        "REV_AT_EPOCH": 27063,
        "BSTAR": 0,
        "MEAN_MOTION_DOT": -4.5e-07,
        "MEAN_MOTION_DDOT": 0
    },
    {
        "OBJECT_NAME": "COSMOS 2109 [GLONASS]",
        "OBJECT_ID": "1990-110A",
        "EPOCH": "2025-02-27T06:10:10.926624",
        "MEAN_MOTION": 2.13101535,
        "ECCENTRICITY": 0.008065,
        "INCLINATION": 64.6512,
        "RA_OF_ASC_NODE": 87.4152,
        "ARG_OF_PERICENTER": 202.4375,
        "MEAN_ANOMALY": 224.062,
        "EPHEMERIS_TYPE": 0,
        "CLASSIFICATION_TYPE": "U",
        "NORAD_CAT_ID": 21006,
        "ELEMENT_SET_NO": 999,
        "REV_AT_EPOCH": 26636,
        "BSTAR": 0,
        "MEAN_MOTION_DOT": 5.9e-07,
        "MEAN_MOTION_DDOT": 0
    },
    {
        "OBJECT_NAME": "COSMOS 2139 [GLONASS]",
        "OBJECT_ID": "1991-025A",
        "EPOCH": "2025-02-27T12:57:48.628224",
        "MEAN_MOTION": 2.13106203,
        "ECCENTRICITY": 0.0015475,
        "INCLINATION": 64.6641,
        "RA_OF_ASC_NODE": 321.011,
        "ARG_OF_PERICENTER": 226.9109,
        "MEAN_ANOMALY": 133.0186,
        "EPHEMERIS_TYPE": 0,
        "CLASSIFICATION_TYPE": "U",
        "NORAD_CAT_ID": 21216,
        "ELEMENT_SET_NO": 999,
        "REV_AT_EPOCH": 26381,
        "BSTAR": 0,
        "MEAN_MOTION_DOT": -2.6e-07,
        "MEAN_MOTION_DDOT": 0
    },
    {
        "OBJECT_NAME": "COSMOS 2140 [GLONASS]",
        "OBJECT_ID": "1991-025B",
        "EPOCH": "2025-03-02T08:13:02.743104",
        "MEAN_MOTION": 2.13100804,
        "ECCENTRICITY": 0.002544,
        "INCLINATION": 64.6515,
        "RA_OF_ASC_NODE": 320.8066,
        "ARG_OF_PERICENTER": 218.6239,
        "MEAN_ANOMALY": 342.254,
        "EPHEMERIS_TYPE": 0,
        "CLASSIFICATION_TYPE": "U",
        "NORAD_CAT_ID": 21217,
        "ELEMENT_SET_NO": 999,
        "REV_AT_EPOCH": 26388,
        "BSTAR": 0,
        "MEAN_MOTION_DOT": -3.8e-07,
        "MEAN_MOTION_DDOT": 0
    },
    {
        "OBJECT_NAME": "COSMOS 2141 [GLONASS]",
        "OBJECT_ID": "1991-025C",
        "EPOCH": "2025-02-28T08:26:45.320352",
        "MEAN_MOTION": 2.13103331,
        "ECCENTRICITY": 0.0004255,
        "INCLINATION": 64.6454,
        "RA_OF_ASC_NODE": 320.7776,
        "ARG_OF_PERICENTER": 244.0005,
        "MEAN_ANOMALY": 216.2558,
        "EPHEMERIS_TYPE": 0,
        "CLASSIFICATION_TYPE": "U",
        "NORAD_CAT_ID": 21218,
        "ELEMENT_SET_NO": 999,
        "REV_AT_EPOCH": 26387,
        "BSTAR": 0,
        "MEAN_MOTION_DOT": -2.8e-07,
        "MEAN_MOTION_DDOT": 0
    },
    {
        "OBJECT_NAME": "COSMOS 2178 [GLONASS]",
        "OBJECT_ID": "1992-005B",
        "EPOCH": "2025-02-27T06:46:53.031936",
        "MEAN_MOTION": 2.13105853,
        "ECCENTRICITY": 0.0030938,
        "INCLINATION": 64.6146,
        "RA_OF_ASC_NODE": 86.3352,
        "ARG_OF_PERICENTER": 27.7249,
        "MEAN_ANOMALY": 34.0612,
        "EPHEMERIS_TYPE": 0,
        "CLASSIFICATION_TYPE": "U",
        "NORAD_CAT_ID": 21854,
        "ELEMENT_SET_NO": 999,
        "REV_AT_EPOCH": 25741,
        "BSTAR": 0,
        "MEAN_MOTION_DOT": 5.9e-07,
        "MEAN_MOTION_DDOT": 0
    },
    {
        "OBJECT_NAME": "COSMOS 2179 [GLONASS]",
        "OBJECT_ID": "1992-005C",
        "EPOCH": "2025-03-02T08:28:24.426336",
        "MEAN_MOTION": 2.13102525,
        "ECCENTRICITY": 0.001346,
        "INCLINATION": 64.6154,
        "RA_OF_ASC_NODE": 86.2421,
        "ARG_OF_PERICENTER": 244.2008,
        "MEAN_ANOMALY": 192.3757,
        "EPHEMERIS_TYPE": 0,
        "CLASSIFICATION_TYPE": "U",
        "NORAD_CAT_ID": 21855,
        "ELEMENT_SET_NO": 999,
        "REV_AT_EPOCH": 25729,
        "BSTAR": 0,
        "MEAN_MOTION_DOT": 3.4e-07,
        "MEAN_MOTION_DDOT": 0
    },
    {
        "OBJECT_NAME": "COSMOS 2206 [GLONASS]",
        "OBJECT_ID": "1992-047A",
        "EPOCH": "2025-03-01T07:10:22.505376",
        "MEAN_MOTION": 2.13107329,
        "ECCENTRICITY": 0.0010242,
        "INCLINATION": 64.4478,
        "RA_OF_ASC_NODE": 318.7499,
        "ARG_OF_PERICENTER": 253.0364,
        "MEAN_ANOMALY": 295.5146,
        "EPHEMERIS_TYPE": 0,
        "CLASSIFICATION_TYPE": "U",
        "NORAD_CAT_ID": 22056,
        "ELEMENT_SET_NO": 999,
        "REV_AT_EPOCH": 25360,
        "BSTAR": 0,
        "MEAN_MOTION_DOT": -2.9e-07,
        "MEAN_MOTION_DDOT": 0
    },
    {
        "OBJECT_NAME": "COSMOS 2204 [GLONASS]",
        "OBJECT_ID": "1992-047B",
        "EPOCH": "2025-03-01T16:53:41.254944",
        "MEAN_MOTION": 2.13103,
        "ECCENTRICITY": 0.0016642,
        "INCLINATION": 64.4633,
        "RA_OF_ASC_NODE": 318.9279,
        "ARG_OF_PERICENTER": 344.3105,
        "MEAN_ANOMALY": 198.5751,
        "EPHEMERIS_TYPE": 0,
        "CLASSIFICATION_TYPE": "U",
        "NORAD_CAT_ID": 22057,
        "ELEMENT_SET_NO": 999,
        "REV_AT_EPOCH": 25346,
        "BSTAR": 0,
        "MEAN_MOTION_DOT": -3.2e-07,
        "MEAN_MOTION_DDOT": 0
    },
    {
        "OBJECT_NAME": "COSMOS 2205 [GLONASS]",
        "OBJECT_ID": "1992-047C",
        "EPOCH": "2025-03-02T02:29:01.829760",
        "MEAN_MOTION": 2.13102864,
        "ECCENTRICITY": 0.001848,
        "INCLINATION": 64.457,
        "RA_OF_ASC_NODE": 318.8522,
        "ARG_OF_PERICENTER": 224.8652,
        "MEAN_ANOMALY": 313.495,
        "EPHEMERIS_TYPE": 0,
        "CLASSIFICATION_TYPE": "U",
        "NORAD_CAT_ID": 22058,
        "ELEMENT_SET_NO": 999,
        "REV_AT_EPOCH": 25347,
        "BSTAR": 0,
        "MEAN_MOTION_DOT": -3.4e-07,
        "MEAN_MOTION_DDOT": 0
    }
]